GLOBALSTAR M035 [-]     
1 25851U 99037A   24104.80336171 -.00000002  00000+0  23279-2 0  9996
2 25851  51.9948 292.5240 0013459  10.0021  85.8641 11.04529647 48811
GLOBALSTAR M032 [-]     
1 25852U 99037B   24104.41658922 -.00000080  00000+0 -40966-3 0  9995
2 25852  51.9921 148.2373 0010009 163.0429 197.0707 11.19051068 86674
GLOBALSTAR M051 [-]     
1 25853U 99037C   24104.89113577 -.00000047  00000+0  61640-3 0  9994
2 25853  51.9833 356.5072 0001576 142.8042 217.2878 11.42195315 83336
GLOBALSTAR M030 [-]     
1 25854U 99037D   24104.52396564 -.00000001  00000+0  15713-2 0  9993
2 25854  51.9864 190.8204 0003377   2.6253 357.4581 11.55091624100391
GLOBALSTAR M048 [-]     
1 25872U 99041A   24104.79924051 -.00000058  00000+0  31291-3 0  9997
2 25872  51.9361 275.1597 0013943 158.7840 305.9238 11.33844949 76278
GLOBALSTAR M026 [-]     
1 25873U 99041B   24104.29711824 -.00000134  00000+0 -25882-2 0  9999
2 25873  52.0030  56.1323 0001025 260.5414 274.3635 11.06835916100884
GLOBALSTAR M043 [-]     
1 25874U 99041C   24104.15432502 -.00000021  00000+0  14107-2 0  9990
2 25874  51.9444   7.1939 0012543 301.7619 207.7683 11.25677966 74448
GLOBALSTAR M028 [-]     
1 25875U 99041D   24104.23603566 -.00000063  00000+0  24005-3 0  9995
2 25875  51.9650  35.0686 0062944 217.5079 142.1381 12.50553231136387
